ONEWEB-0525             
1 54143U 22138AG  24109.45372743  .00000196  00000+0  45794-3 0  9991
2 54143  87.9093 102.1512 0001592  90.3580 269.7735 13.19725708 72662
ONEWEB-0526             
1 54144U 22138AH  24109.41108162  .00000122  00000+0  27293-3 0  9993
2 54144  87.9094 102.1559 0001871  91.7463 268.3884 13.19724285 72636
ONEWEB-0529             
1 54145U 22138AJ  24109.49005460  .00000123  00000+0  27507-3 0  9998
2 54145  87.9104 102.1504 0001599  96.2160 263.9155 13.19725784 72660
ONEWEB-0531             
1 54146U 22138AK  24109.39221603  .00000046  00000+0  81655-4 0  9996
2 54146  87.9177  71.5830 0003101  93.2353 266.9135 13.20771521 75053
ONEWEB-0535             
1 54147U 22138AL  24109.52322759  .00000042  00000+0  73640-4 0  9997
2 54147  87.9096 102.1314 0002274  86.2218 273.9175 13.19725379 72680
ONEWEB-0536             
1 54148U 22138AM  24109.45535158  .00000044  00000+0  77138-4 0  9997
2 54148  87.9178  71.6201 0003093  80.6778 279.4705 13.20771418 75057
GSLV R/B                
1 54149U 22138AN  24109.29487893  .00006342  00000+0  64496-3 0  9991
2 54149  87.3854  37.0442 0026222 126.4693 233.8957 14.90370506 80869
ONEWEB-0527             
1 54642U 22166A   24109.35505292  .00000069  00000+0  13515-3 0  9997
2 54642  87.9310  41.1989 0001939  83.9855 276.1499 13.21826140 67192
